OSCAR 7 (AO-7)          
1 07530U 74089B   18187.49773685 -.00000027  00000-0  11308-3 0  9993
2 07530 101.6881 154.5295 0011755 299.6548 172.6876 12.53633298996783
UOSAT 2 (UO-11)         
1 14781U 84021B   18187.56717172  .00000022  00000-0  89294-5 0  9998
2 14781  97.6475 222.9554 0009109  29.0654 331.1065 14.83015514826316
LUSAT (LO-19)           
1 20442U 90005G   18187.41542043 -.00000020  00000-0  89804-5 0  9991
2 20442  98.6106 125.7896 0012961  93.1040 267.1627 14.32899289486585
ITAMSAT (IO-26)         
1 22826U 93061D   18187.89394515 -.00000005  00000-0  16034-4 0  9992
2 22826  98.8577 164.4029 0007812 280.6799  79.3503 14.30365634292578
RADIO ROSTO (RS-15)     
1 23439U 94085A   18187.57766477 -.00000027  00000-0  43501-3 0  9997
2 23439  64.8190 317.4732 0156726 178.5756 258.0270 11.27567496968751
JAS-2 (FO-29)           
1 24278U 96046B   18187.52984686 -.00000012  00000-0  21348-4 0  9997
2 24278  98.5167  23.6188 0351313  60.8313 302.7501 13.53084499 80851
TECHSAT 1B (GO-32)      
1 25397U 98043D   18187.42934258 -.00000019  00000-0  10589-4 0  9990
2 25397  98.6505 127.5503 0001189  21.2955 338.8273 14.23647939 38460
ISS (ZARYA)             
1 25544U 98067A   18187.59193287  .00001037  00000-0  22998-4 0  9994
2 25544  51.6416 281.9855 0003341 273.7655 288.5254 15.54012989121539
PCSAT (NO-44)           
1 26931U 01043C   18187.44195576 -.00000044  00000-0  15067-4 0  9997
2 26931  67.0495 179.7257 0007959 271.8093  88.2096 14.30509915875305
SAUDISAT 1C (SO-50)     
1 27607U 02058C   18187.05467967 -.00000050  00000-0  13775-4 0  9999
2 27607  64.5554  32.3627 0067208 324.2996  35.3621 14.75462335835741
CUTE-1 (CO-55)          
1 27844U 03031E   18187.58798384  .00000031  00000-0  33645-4 0  9998
2 27844  98.6859 195.9577 0008983 321.8406  38.2135 14.22121235778914
CUBESAT XI-IV (CO-57)   
1 27848U 03031J   18187.55272266  .00000023  00000-0  30593-4 0  9995
2 27848  98.6946 196.3274 0009077 333.0774  26.9931 14.21724476778814
MOZHAYETS 4 (RS-22)     
1 27939U 03042A   18187.90168873  .00000092  00000-0  25030-4 0  9991
2 27939  97.9933 326.5293 0014389  87.0271  25.9992 14.66698601789706
CUBESAT XI-V (CO-58)    
1 28895U 05043F   18187.35089151  .00000092  00000-0  26379-4 0  9993
2 28895  97.9116 338.0323 0017069  13.9578 346.2093 14.63559578676442
CUTE-1.7+APD II (CO-65) 
1 32785U 08021C   18187.48005536  .00000163  00000-0  23337-4 0  9994
2 32785  97.5464 198.7368 0012487 341.5023  18.5739 14.88141053551979
DELFI-C3 (DO-64)        
1 32789U 08021G   18187.17964382  .00001039  00000-0  75158-4 0  9998
2 32789  97.5102 241.5075 0011255 227.8153 132.2119 15.06132546554647
SEEDS II (CO-66)        
1 32791U 08021J   18187.33582981  .00000308  00000-0  36831-4 0  9993
2 32791  97.5351 204.0014 0012317 320.4114  39.6204 14.90579739552284
YUBILEINY (RS-30)       
1 32953U 08025A   18187.75798160  .00000035  00000-0  17929-3 0  9994
2 32953  82.5028   0.5050 0019416 164.7675 195.3994 12.43083915459202
KKS-1 (KISEKI)          
1 33499U 09002H   18187.84720096  .00000073  00000-0  18813-4 0  9995
2 33499  98.3568  10.2520 0008234 224.6258 135.4288 14.75341902508083
SWISSCUBE               
1 35932U 09051B   18187.40145171  .00000093  00000-0  31936-4 0  9993
2 35932  98.5478 339.0258 0008428 144.0880 216.0885 14.56172779466232
BEESAT                  
1 35933U 09051C   18187.42731480  .00000074  00000-0  27578-4 0  9996
2 35933  98.5518 340.6123 0006378 154.0487 206.1030 14.56275242466267
ITUPSAT 1               
1 35935U 09051E   18187.42422061  .00000065  00000-0  26015-4 0  9995
2 35935  98.5630 340.8616 0008760 152.4832 207.6830 14.55451131466093
XIWANG-1 (HOPE-1)       
1 36122U 09072B   18187.84981091 -.00000025  00000-0  45231-4 0  9994
2 36122 100.0744 201.5645 0008236  69.3822 290.8175 13.16345130411234
JUGNU                   
1 37839U 11058B   18187.49270017  .00000301  00000-0  18537-4 0  9992
2 37839  19.9614 280.1895 0019080  99.2812 356.2457 14.12622747348108
SRMSAT                  
1 37841U 11058D   18187.45739319  .00000293  00000-0  16190-4 0  9999
2 37841  19.9733 330.0025 0011904 342.7440  56.7222 14.10609318347606
M-CUBED & EXP-1 PRIME   
1 37855U 11061F   18187.49362429  .00000514  00000-0  34371-4 0  9993
2 37855 101.7149 259.9008 0176297  25.1513 335.8156 15.04515252364559
STRAND-1                
1 39090U 13009E   18187.56314357  .00000010  00000-0  18897-4 0  9991
2 39090  98.5202  33.6940 0008139 236.2471 123.7939 14.35031544280600
SOMP                    
1 39134U 13015E   18187.55355715  .00000614  00000-0  38457-4 0  9993
2 39134  64.8644  64.2613 0010304 216.0999 143.9434 15.19231278287464
BEESAT-3                
1 39135U 13015F   18187.47545913  .00000632  00000-0  41990-4 0  9992
2 39135  64.8700  78.1202 0019000 237.7640 122.1645 15.16731755287185
BEESAT-2                
1 39136U 13015G   18187.84772103  .00000394  00000-0  30375-4 0  9997
2 39136  64.8705  79.7614 0021016 234.1204 125.7971 15.16196433287574
ZACUBE-1 (TSHEPISOSAT)  
1 39417U 13066B   18187.63862576  .00000089  00000-0  17588-4 0  9998
2 39417  97.5857 215.2377 0060750  91.5135 269.3038 14.80949568249679
GOMX 1                  
1 39430U 13066Q   18187.84783643  .00000128  00000-0  32703-4 0  9993
2 39430  97.6986 163.3073 0149957 268.5327  89.8692 14.59094448246010
CUBEBUG-2 (LO-74)       
1 39440U 13066AA  18187.60130378  .00000128  00000-0  24709-4 0  9996
2 39440  97.6004 201.6843 0081693 131.7568 229.0664 14.75687366247588
FUNCUBE-1 (AO-73)       
1 39444U 13066AE  18187.55677464  .00000159  00000-0  25881-4 0  9992
2 39444  97.5865 216.7099 0059860  87.2226 273.5837 14.81733581247936
UWE-3                   
1 39446U 13066AG  18187.59079383  .00000136  00000-0  24662-4 0  9995
2 39446  97.5916 208.0297 0071723 112.0415 248.8435 14.78221943247397
SPROUT                  
1 39770U 14029E   18187.84047640  .00000348  00000-0  45118-4 0  9998
2 39770  97.8773 288.7241 0009910 137.8834 222.3140 14.86884289223283
UNISAT-6                
1 40012U 14033C   18187.56345234  .00000117  00000-0  24928-4 0  9993
2 40012  97.8058  63.1154 0059411 135.8568 224.7405 14.73833821217556
DUCHIFAT-1              
1 40021U 14033M   18187.32793378  .00000363  00000-0  43168-4 0  9993
2 40021  97.9155 106.0818 0014310 112.4647 247.8088 14.90331210219804
FUNCUBE-3 (EO-79)       
1 40025U 14033R   18187.77357274  .00000186  00000-0  25884-4 0  9995
2 40025  97.9047 103.1321 0013753 117.3159 242.9460 14.88732713219706
NUDT-PHONESAT           
1 40900U 15049B   18187.57645605  .00001260  00000-0  59165-4 0  9994
2 40900  97.4404 195.6045 0012390 328.4814  31.5678 15.21411110154869
ZDPS 2A                 
1 40901U 15049C   18187.60072290  .00000539  00000-0  30509-4 0  9992
2 40901  97.4582 193.6434 0012945 337.3561  22.7100 15.17131655154603
ZDPS 2B                 
1 40902U 15049D   18187.57706518  .00000522  00000-0  29823-4 0  9995
2 40902  97.4483 191.6115 0012940 334.3074  25.7515 15.16925680154587
XW-2A                   
1 40903U 15049E   18187.85793255  .00001200  00000-0  31556-4 0  9991
2 40903  97.3825 222.9079 0012994 325.5311  34.5091 15.40582887156831
KAITUO 1A               
1 40904U 15049F   18187.80606481  .00000104  00000-0  90610-5 0  9990
2 40904  97.4585 191.0240 0014273 337.1851   4.9183 15.15044437154468
2015-049G               
1 40905U 15049G   18187.58068528  .00000230  00000-0  16262-4 0  9990
2 40905  97.4586 188.8461 0014889 329.2267  30.8090 15.13995948154358
XW-2C                   
1 40906U 15049H   18187.79987331  .00000379  00000-0  23663-4 0  9993
2 40906  97.4596 190.9316 0014060 327.7999  32.2373 15.15225196154464
XW-2D                   
1 40907U 15049J   18187.81638874  .00000398  00000-0  24536-4 0  9993
2 40907  97.4570 190.6425 0013364 325.6802  34.3565 15.15378765154479
LILACSAT 2              
1 40908U 15049K   18187.58240396  .00000180  00000-0  13681-4 0  9994
2 40908  97.4683 189.7465 0015089 327.8782  32.1529 15.13532336154307
XW-2F                   
1 40910U 15049M   18187.55150429  .00000610  00000-0  34600-4 0  9993
2 40910  97.4570 191.7327 0013965 321.6389  38.3850 15.16587420154381
XW-2B                   
1 40911U 15049N   18187.57048814  .00000388  00000-0  24075-4 0  9997
2 40911  97.4605 190.9462 0013301 327.2154  32.8252 15.15321867154338
KAITUO 1B               
1 40912U 15049P   18187.59466613  .00000681  00000-0  35935-4 0  9994
2 40912  97.4500 194.6475 0013885 308.0174 170.4540 15.18811376154616
TIANWANG 1C (TW-1C)     
1 40926U 15051B   18187.88856481  .00005001  00000-0  92859-4 0  9999
2 40926  97.1812 230.1416 0009385 193.8209 158.8728 15.49350968156354
TIANWANG 1A (TW-1A)     
1 40928U 15051D   18187.45774154  .00001320  00000-0  36457-4 0  9992
2 40928  97.1833 221.0651 0010014 250.0353 217.3914 15.38807049155741
LAPAN-A2 (IO-86)        
1 40931U 15052B   18187.03836460  .00000665  00000-0  35459-5 0  9993
2 40931   5.9997  15.6834 0013155 275.8812  83.9844 14.76578663149792
E-ST@R-II               
1 41459U 16025D   18187.40078346  .00000997  00000-0  55738-4 0  9991
2 41459  98.1345 251.1074 0171772  84.0725 278.0051 15.04463971120316
AAUSAT 4                
1 41460U 16025E   18187.75953246  .00001292  00000-0  70014-4 0  9995
2 41460  98.1272 252.0173 0163293  78.7263 283.2252 15.05937782120434
NUSAT 1 (LO-87)         
1 41557U 16033B   18187.84334806  .00000874  00000-0  34664-4 0  9992
2 41557  97.4298 272.0181 0015087  91.1801  47.8175 15.28008062117154
BEESAT-4                
1 41619U 16040W   18187.13315711  .00000941  00000-0  43999-4 0  9991
2 41619  97.4137 250.0173 0012275 156.5061 203.6738 15.22179754100972
ALSAT 1N                
1 41789U 16059G   18187.77640120  .00000046  00000-0  17804-4 0  9996
2 41789  98.1176 250.2804 0029040  28.3434 331.9327 14.64164081 94885
CAS-2T & KS-1Q          
1 41847U 16066G   18187.59590317  .00000065  00000-0  20454-4 0  9997
2 41847  98.7486 216.9049 0366133 186.6516 172.9737 14.37903602 87112
NAYIF-1 (EO-88)         
1 42017U 17008BX  18187.39398345  .00001139  00000-0  49249-4 0  9995
2 42017  97.4469 252.3367 0005215 325.2800  34.8097 15.24505570 76992
LILACSAT-1              
1 42725U 98067ME  18187.65364821  .00018158  00000-0  15072-3 0  9991
2 42725  51.6351 258.7505 0004814 317.7608  42.3018 15.70253530 63574
MAX VALIER SAT          
1 42778U 17036P   18187.71551699  .00000580  00000-0  28947-4 0  9990
2 42778  97.4019 247.1034 0012734   9.7384 350.4096 15.21352364 57471
FOX-1B (AO-91)          
1 43017U 17073E   18187.37101180  .00000234  00000-0  24196-4 0  9994
2 43017  97.7076 117.7050 0258931 208.9094 149.7566 14.78100732 33944
FOX-1D (AO-92)          
1 43137U 18004AC  18187.41779372  .00000754  00000-0  35365-4 0  9998
2 43137  97.5323 250.1710 0010525  41.4995 318.7039 15.22754708 26639
